[{"OBJECT_NAME":"PROTOMETHEE","OBJECT_ID":"2023-174BT","EPOCH":"2026-03-09T23:28:08.029344","MEAN_MOTION":15.30202663,"ECCENTRICITY":0.00088339,"INCLINATION":97.3826,"RA_OF_ASC_NODE":147.9552,"ARG_OF_PERICENTER":148.5993,"MEAN_ANOMALY":211.5776,"EPHEMERIS_TYPE":0,"CLASSIFICATION_TYPE":"U","NORAD_CAT_ID":58321,"ELEMENT_SET_NO":999,"REV_AT_EPOCH":12979,"BSTAR":0.00015715731,"MEAN_MOTION_DOT":4.52e-5,"MEAN_MOTION_DDOT":0},{"OBJECT_NAME":"STARLINK-34226","OBJECT_ID":"2025-133Y","EPOCH":"2026-03-09T10:58:07.142304","MEAN_MOTION":15.30201777,"ECCENTRICITY":0.00010458,"INCLINATION":53.16,"RA_OF_ASC_NODE":117.8139,"ARG_OF_PERICENTER":85.5253,"MEAN_ANOMALY":274.5868,"EPHEMERIS_TYPE":0,"CLASSIFICATION_TYPE":"U","NORAD_CAT_ID":64494,"ELEMENT_SET_NO":999,"REV_AT_EPOCH":4098,"BSTAR":0.00057170817,"MEAN_MOTION_DOT":0.00016612,"MEAN_MOTION_DDOT":0}]
